STARLINK-35567          
1 66472U 25262S   26079.43959473  .00002733  00000+0  10878-3 0  9991
2 66472  42.9990 235.1828 0000925 245.0734 115.0021 15.27587260 20555
STARLINK-35568          
1 66473U 25262T   26079.48971656  .00022538  00000+0  82540-3 0  9994
2 66473  43.0002 235.5615 0001413 271.5517  88.5173 15.27605269 20558
STARLINK-35620          
1 66474U 25262U   26079.44861261  .00014850  00000+0  54843-3 0  9994
2 66474  43.0002 235.2492 0002764 295.4010  64.6555 15.27557625 20553
STARLINK-35538          
1 66475U 25262V   26079.48199656  .00013831  00000+0  51089-3 0  9998
2 66475  42.9996 235.4989 0000614 250.1093 109.9692 15.27597792 20552
STARLINK-35372          
1 66476U 25262W   26078.48449982  .00020521  00000+0  75275-3 0  9995
2 66476  43.0008 240.9119 0004194 290.5841  69.4561 15.27593319 20298
STARLINK-35354          
1 66477U 25262X   26079.44604257  .00029356  00000+0  10715-2 0  9993
2 66477  42.9994 235.2260 0001885 272.6338  87.4298 15.27596267 20552
STARLINK-35283          
1 66478U 25262Y   26079.47943125  .00024666  00000+0  90227-3 0  9993
2 66478  43.0003 235.4773 0000798 242.1190 117.9580 15.27601263 20553
STARLINK-35581          
1 66479U 25262Z   26079.56137319  .00021039  00000+0  77132-3 0  9995
2 66479  42.9992 234.3707 0001748 271.2372  88.8280 15.27603304 20578
STARLINK-35670          
1 66480U 25262AA  26079.47043927  .00011525  00000+0  42741-3 0  9995
2 66480  42.9997 235.4090 0001374 291.8547  68.2159 15.27599327 20553
STARLINK-35698          
1 66481U 25262AB  26079.49854546  .00012721  00000+0  47067-3 0  9990
2 66481  43.0006 234.7582 0002716 286.5486  73.5067 15.27601768 20560
STARLINK-35648          
1 66482U 25262AC  26079.45116151  .00025084  00000+0  91746-3 0  9999
2 66482  42.9982 235.2608 0001424 275.2013  84.8677 15.27597966 20390
STARLINK-35654          
1 66483U 25262AD  26079.44088370  .00023872  00000+0  87375-3 0  9996
2 66483  42.9983 235.1847 0001037 242.1091 117.9656 15.27596779 20559
STARLINK-35371          
1 66484U 25262AE  26079.49227787  .00005940  00000+0  22519-3 0  9994
2 66484  43.0016 235.5747 0001492 261.7714  98.2969 15.27579120 20555
STARLINK-34774          
1 66485U 25263A   26079.29176285  .00015776  00000+0  58131-3 0  9997
2 66485  42.9980 290.5444 0001239 280.7287  79.3425 15.27596034 20521
STARLINK-34844          
1 66486U 25263B   26079.29047674  .00011433  00000+0  42421-3 0  9998
2 66486  43.0023 290.5304 0001613 273.5188  86.5479 15.27589763 20477
STARLINK-34733          
1 66487U 25263C   26079.28792801  .00012916  00000+0  47820-3 0  9992
2 66487  42.9995 290.5128 0001215 284.3867  75.6850 15.27569408 20522
