[{"OBJECT_NAME":"STARLINK-35567","OBJECT_ID":"2025-262S","EPOCH":"2026-03-20T10:33:00.984672","MEAN_MOTION":15.2758726,"ECCENTRICITY":9.25e-5,"INCLINATION":42.999,"RA_OF_ASC_NODE":235.1828,"ARG_OF_PERICENTER":245.0734,"MEAN_ANOMALY":115.0021,"EPHEMERIS_TYPE":0,"CLASSIFICATION_TYPE":"U","NORAD_CAT_ID":66472,"ELEMENT_SET_NO":999,"REV_AT_EPOCH":2055,"BSTAR":0.00010878,"MEAN_MOTION_DOT":2.733e-5,"MEAN_MOTION_DDOT":0},{"OBJECT_NAME":"STARLINK-35568","OBJECT_ID":"2025-262T","EPOCH":"2026-03-20T11:45:11.510784","MEAN_MOTION":15.27605269,"ECCENTRICITY":0.0001413,"INCLINATION":43.0002,"RA_OF_ASC_NODE":235.5615,"ARG_OF_PERICENTER":271.5517,"MEAN_ANOMALY":88.5173,"EPHEMERIS_TYPE":0,"CLASSIFICATION_TYPE":"U","NORAD_CAT_ID":66473,"ELEMENT_SET_NO":999,"REV_AT_EPOCH":2055,"BSTAR":0.0008254,"MEAN_MOTION_DOT":0.00022538,"MEAN_MOTION_DDOT":0},{"OBJECT_NAME":"STARLINK-35620","OBJECT_ID":"2025-262U","EPOCH":"2026-03-20T10:46:00.129504","MEAN_MOTION":15.27557625,"ECCENTRICITY":0.0002764,"INCLINATION":43.0002,"RA_OF_ASC_NODE":235.2492,"ARG_OF_PERICENTER":295.401,"MEAN_ANOMALY":64.6555,"EPHEMERIS_TYPE":0,"CLASSIFICATION_TYPE":"U","NORAD_CAT_ID":66474,"ELEMENT_SET_NO":999,"REV_AT_EPOCH":2055,"BSTAR":0.00054843,"MEAN_MOTION_DOT":0.0001485,"MEAN_MOTION_DDOT":0},{"OBJECT_NAME":"STARLINK-35538","OBJECT_ID":"2025-262V","EPOCH":"2026-03-20T11:34:04.502784","MEAN_MOTION":15.27597792,"ECCENTRICITY":6.14e-5,"INCLINATION":42.9996,"RA_OF_ASC_NODE":235.4989,"ARG_OF_PERICENTER":250.1093,"MEAN_ANOMALY":109.9692,"EPHEMERIS_TYPE":0,"CLASSIFICATION_TYPE":"U","NORAD_CAT_ID":66475,"ELEMENT_SET_NO":999,"REV_AT_EPOCH":2055,"BSTAR":0.00051089,"MEAN_MOTION_DOT":0.00013831,"MEAN_MOTION_DDOT":0},{"OBJECT_NAME":"STARLINK-35372","OBJECT_ID":"2025-262W","EPOCH":"2026-03-19T11:37:40.784448","MEAN_MOTION":15.27593319,"ECCENTRICITY":0.00041947,"INCLINATION":43.0008,"RA_OF_ASC_NODE":240.9119,"ARG_OF_PERICENTER":290.5841,"MEAN_ANOMALY":69.4561,"EPHEMERIS_TYPE":0,"CLASSIFICATION_TYPE":"U","NORAD_CAT_ID":66476,"ELEMENT_SET_NO":999,"REV_AT_EPOCH":2029,"BSTAR":0.00075275477,"MEAN_MOTION_DOT":0.00020521,"MEAN_MOTION_DDOT":0},{"OBJECT_NAME":"STARLINK-35354","OBJECT_ID":"2025-262X","EPOCH":"2026-03-20T10:42:18.078048","MEAN_MOTION":15.27596267,"ECCENTRICITY":0.0001885,"INCLINATION":42.9994,"RA_OF_ASC_NODE":235.226,"ARG_OF_PERICENTER":272.6338,"MEAN_ANOMALY":87.4298,"EPHEMERIS_TYPE":0,"CLASSIFICATION_TYPE":"U","NORAD_CAT_ID":66477,"ELEMENT_SET_NO":999,"REV_AT_EPOCH":2055,"BSTAR":0.0010715,"MEAN_MOTION_DOT":0.00029356,"MEAN_MOTION_DDOT":0},{"OBJECT_NAME":"STARLINK-35283","OBJECT_ID":"2025-262Y","EPOCH":"2026-03-20T11:30:22.860000","MEAN_MOTION":15.27601263,"ECCENTRICITY":7.98e-5,"INCLINATION":43.0003,"RA_OF_ASC_NODE":235.4773,"ARG_OF_PERICENTER":242.119,"MEAN_ANOMALY":117.958,"EPHEMERIS_TYPE":0,"CLASSIFICATION_TYPE":"U","NORAD_CAT_ID":66478,"ELEMENT_SET_NO":999,"REV_AT_EPOCH":2055,"BSTAR":0.00090227,"MEAN_MOTION_DOT":0.00024666,"MEAN_MOTION_DDOT":0},{"OBJECT_NAME":"STARLINK-35581","OBJECT_ID":"2025-262Z","EPOCH":"2026-03-20T13:28:22.643616","MEAN_MOTION":15.27603304,"ECCENTRICITY":0.0001748,"INCLINATION":42.9992,"RA_OF_ASC_NODE":234.3707,"ARG_OF_PERICENTER":271.2372,"MEAN_ANOMALY":88.828,"EPHEMERIS_TYPE":0,"CLASSIFICATION_TYPE":"U","NORAD_CAT_ID":66479,"ELEMENT_SET_NO":999,"REV_AT_EPOCH":2057,"BSTAR":0.00077132,"MEAN_MOTION_DOT":0.00021039,"MEAN_MOTION_DDOT":0},{"OBJECT_NAME":"STARLINK-35670","OBJECT_ID":"2025-262AA","EPOCH":"2026-03-20T11:17:25.952928","MEAN_MOTION":15.27599327,"ECCENTRICITY":0.0001374,"INCLINATION":42.9997,"RA_OF_ASC_NODE":235.409,"ARG_OF_PERICENTER":291.8547,"MEAN_ANOMALY":68.2159,"EPHEMERIS_TYPE":0,"CLASSIFICATION_TYPE":"U","NORAD_CAT_ID":66480,"ELEMENT_SET_NO":999,"REV_AT_EPOCH":2055,"BSTAR":0.00042741,"MEAN_MOTION_DOT":0.00011525,"MEAN_MOTION_DDOT":0},{"OBJECT_NAME":"STARLINK-35698","OBJECT_ID":"2025-262AB","EPOCH":"2026-03-20T11:57:54.327744","MEAN_MOTION":15.27601768,"ECCENTRICITY":0.0002716,"INCLINATION":43.0006,"RA_OF_ASC_NODE":234.7582,"ARG_OF_PERICENTER":286.5486,"MEAN_ANOMALY":73.5067,"EPHEMERIS_TYPE":0,"CLASSIFICATION_TYPE":"U","NORAD_CAT_ID":66481,"ELEMENT_SET_NO":999,"REV_AT_EPOCH":2056,"BSTAR":0.00047067,"MEAN_MOTION_DOT":0.00012721,"MEAN_MOTION_DDOT":0},{"OBJECT_NAME":"STARLINK-35648","OBJECT_ID":"2025-262AC","EPOCH":"2026-03-20T10:49:40.354464","MEAN_MOTION":15.27597966,"ECCENTRICITY":0.0001424,"INCLINATION":42.9982,"RA_OF_ASC_NODE":235.2608,"ARG_OF_PERICENTER":275.2013,"MEAN_ANOMALY":84.8677,"EPHEMERIS_TYPE":0,"CLASSIFICATION_TYPE":"U","NORAD_CAT_ID":66482,"ELEMENT_SET_NO":999,"REV_AT_EPOCH":2039,"BSTAR":0.00091746,"MEAN_MOTION_DOT":0.00025084,"MEAN_MOTION_DDOT":0},{"OBJECT_NAME":"STARLINK-35654","OBJECT_ID":"2025-262AD","EPOCH":"2026-03-20T10:34:52.351680","MEAN_MOTION":15.27596779,"ECCENTRICITY":0.0001037,"INCLINATION":42.9983,"RA_OF_ASC_NODE":235.1847,"ARG_OF_PERICENTER":242.1091,"MEAN_ANOMALY":117.9656,"EPHEMERIS_TYPE":0,"CLASSIFICATION_TYPE":"U","NORAD_CAT_ID":66483,"ELEMENT_SET_NO":999,"REV_AT_EPOCH":2055,"BSTAR":0.00087375,"MEAN_MOTION_DOT":0.00023872,"MEAN_MOTION_DDOT":0},{"OBJECT_NAME":"STARLINK-35371","OBJECT_ID":"2025-262AE","EPOCH":"2026-03-20T11:48:52.807968","MEAN_MOTION":15.2757912,"ECCENTRICITY":0.0001492,"INCLINATION":43.0016,"RA_OF_ASC_NODE":235.5747,"ARG_OF_PERICENTER":261.7714,"MEAN_ANOMALY":98.2969,"EPHEMERIS_TYPE":0,"CLASSIFICATION_TYPE":"U","NORAD_CAT_ID":66484,"ELEMENT_SET_NO":999,"REV_AT_EPOCH":2055,"BSTAR":0.00022519,"MEAN_MOTION_DOT":5.94e-5,"MEAN_MOTION_DDOT":0},{"OBJECT_NAME":"STARLINK-34774","OBJECT_ID":"2025-263A","EPOCH":"2026-03-20T07:00:08.310240","MEAN_MOTION":15.27596034,"ECCENTRICITY":0.0001239,"INCLINATION":42.998,"RA_OF_ASC_NODE":290.5444,"ARG_OF_PERICENTER":280.7287,"MEAN_ANOMALY":79.3425,"EPHEMERIS_TYPE":0,"CLASSIFICATION_TYPE":"U","NORAD_CAT_ID":66485,"ELEMENT_SET_NO":999,"REV_AT_EPOCH":2052,"BSTAR":0.00058131,"MEAN_MOTION_DOT":0.00015776,"MEAN_MOTION_DDOT":0},{"OBJECT_NAME":"STARLINK-34844","OBJECT_ID":"2025-263B","EPOCH":"2026-03-20T06:58:17.190336","MEAN_MOTION":15.27589763,"ECCENTRICITY":0.0001613,"INCLINATION":43.0023,"RA_OF_ASC_NODE":290.5304,"ARG_OF_PERICENTER":273.5188,"MEAN_ANOMALY":86.5479,"EPHEMERIS_TYPE":0,"CLASSIFICATION_TYPE":"U","NORAD_CAT_ID":66486,"ELEMENT_SET_NO":999,"REV_AT_EPOCH":2047,"BSTAR":0.00042421,"MEAN_MOTION_DOT":0.00011433,"MEAN_MOTION_DDOT":0},{"OBJECT_NAME":"STARLINK-34733","OBJECT_ID":"2025-263C","EPOCH":"2026-03-20T06:54:36.980064","MEAN_MOTION":15.27569408,"ECCENTRICITY":0.0001215,"INCLINATION":42.9995,"RA_OF_ASC_NODE":290.5128,"ARG_OF_PERICENTER":284.3867,"MEAN_ANOMALY":75.685,"EPHEMERIS_TYPE":0,"CLASSIFICATION_TYPE":"U","NORAD_CAT_ID":66487,"ELEMENT_SET_NO":999,"REV_AT_EPOCH":2052,"BSTAR":0.0004782,"MEAN_MOTION_DOT":0.00012916,"MEAN_MOTION_DDOT":0}]
